[{"OBJECT_NAME":"YAOGAN-30 09A","OBJECT_ID":"2021-039A","EPOCH":"2026-03-09T22:49:24.864672","MEAN_MOTION":15.02125939,"ECCENTRICITY":0.0004998,"INCLINATION":34.9966,"RA_OF_ASC_NODE":276.1989,"ARG_OF_PERICENTER":265.144,"MEAN_ANOMALY":94.8698,"EPHEMERIS_TYPE":0,"CLASSIFICATION_TYPE":"U","NORAD_CAT_ID":48423,"ELEMENT_SET_NO":999,"REV_AT_EPOCH":26461,"BSTAR":0.00029068534,"MEAN_MOTION_DOT":3.873e-5,"MEAN_MOTION_DDOT":0},{"OBJECT_NAME":"STARLINK-5569","OBJECT_ID":"2023-013BA","EPOCH":"2026-03-09T00:36:29.578176","MEAN_MOTION":15.02537671,"ECCENTRICITY":0.00013622,"INCLINATION":43.0042,"RA_OF_ASC_NODE":316.5729,"ARG_OF_PERICENTER":264.2114,"MEAN_ANOMALY":95.8573,"EPHEMERIS_TYPE":0,"CLASSIFICATION_TYPE":"U","NORAD_CAT_ID":55379,"ELEMENT_SET_NO":999,"REV_AT_EPOCH":17146,"BSTAR":-3.791612e-6,"MEAN_MOTION_DOT":-2.55e-6,"MEAN_MOTION_DDOT":0}]
